#dP2020  9 28  0  0  0.00000000      96 __u+U ITR00 FIT  IAC
## 2125  86400.00000000   900.00000000 59120 0.0000000000000
+  114   C06C07C08C09C10C11C12C13C14C16C19C20C21C22C23C24C25
+        C26C27C28C29C30C32C33C34C35C36C37C38C39C40C43C44C45
+        C46E01E02E03E04E05E07E08E09E11E12E13E14E15E18E19E21
+        E24E25E26E27E30E31E33E36G01G02G03G04G05G06G07G08G09
+        G10G11G12G13G15G16G17G18G19G20G21G22G24G25G26G27G28
+        G29G30G31G32J01J02J03R01R02R03R04R05R07R08R11R12R13
+        R14R15R16R17R18R19R20R21R22R23R24R26  0  0  0  0  0
++        10  8  7  8  8  8  8  8  8  8  7  6  8  8  7  9  9
++         7  8  8  6  6  8  8  8  7  8  7 11 10 10  7 10  9
++         9  6  7  7  7  6  7  7  6  7  8  7  8  6  6  6  7
++         9  7  7  6  5  6  8  7  7  6  6  6  7  7  6  6  6
++         6  6  7  6  7  6  5  7  6  6  6  6  6  6  6  6  6
++         6  6  6  6  9  9 12  6  7  6  7  6  7  6  6  7  7
++         7  7  7  8  8  7  8  7  8  8  8  8  0  0  0  0  0
%c M  cc GPS ccc cccc cccc cccc cccc ccccc ccccc ccccc ccccc
%c cc cc ccc ccc cccc cccc cccc cccc ccccc ccccc ccccc ccccc
%f  0.0000000  0.000000000  0.00000000000  0.000000000000000
%f  0.0000000  0.000000000  0.00000000000  0.000000000000000
%i    0    0    0    0      0      0      0      0         0
%i    0    0    0    0      0      0      0      0         0
/* INFORMATION & ANALYSIS CENTER (IAC)      ULTRA-RAPID DATA
/* S/V CLOCKS ARE ALIGNED TO GNSS TIME                      
/* G:C1WC2W R:C1PC2P E:C1XC5X C:C2IC6I J:C1CC2S             
/* PCV:IGS14_2118 OL/AL:FES2004  NONE     YN ORB:CoN CLK:CoN
*  2020 09 28  3 30  0.00000000
PC06 -21814.135040  36324.634879  -1275.986048     18.456920
PC07  -9160.514385  28776.561479 -28982.551365    -50.843418
PC08 -19750.957708  18769.842635  32134.579813   -560.633247
PC09 -11849.454127  37266.006563 -16021.613573    838.177463
PC10   3855.070991  36204.300451 -20666.006619   -176.528747
PC11   4341.298028  16369.585107  22225.139565   -649.081303
PC12 -12220.609361  22749.776690  10560.678376    529.985916
PC13  -3805.851586  22818.252932  35305.109555    668.853905
PC14  10670.388080  25438.497134  -3995.735028    231.843729
PC16 -18813.509754  37488.212507  -5109.262863   -591.407143
PC19 -15213.876519 -19702.674864  12646.303162    562.062843
PC20  -5312.256748 -27101.734813  -4102.431710   -849.497043
PC21  -8243.791026  18574.003195  19125.626045   -685.683969
PC22 -16535.716869   -733.910528  22466.412309   -768.238465
PC23  26960.460460   1425.726558   7075.040576   -875.184343
PC24   4290.532036  16999.169818 -21711.368681   -723.936919
PC25  22942.559019  12326.628202 -10047.367999   -771.985485
PC26 -14915.923139  11657.330546 -20492.570460    846.553752
PC27  18691.670496 -20659.927419  -1507.751976    406.413733
PC28  22121.599141  -7659.615196  15202.463277   -164.909711
PC29 -12945.895351  -9304.474491 -22909.782875    289.880420
PC30   3875.508215 -21799.625109 -16979.738462    381.970392
PC32   8107.916433 -18647.765349 -19109.026190   -904.761760
PC33  15288.866465  19673.432157 -12553.115306   -802.472549
PC34  -3423.541026  21621.553258  17309.117724   -844.655195
PC35 -21844.678484   8184.779633 -15337.830893 999999.999999
PC36 -22450.863112 -12999.444393  10318.853075   -901.633272
PC37  15906.349132 -10919.931401  20193.558325   -912.719195
PC38 -16177.791106  21978.639470  32094.433681    103.006210
PC39 -15194.829913  38860.652799  -6484.337478     23.056613
PC40   1128.371769  34723.914281 -23741.118447     85.498698
PC43  12683.829035   9788.238834  22843.204380   -392.141043
PC44 -18133.138049  21191.392548   1282.566003 999999.999999
PC45 -26939.917826  -1381.028042  -7097.051614 999999.999999
PC46  -5053.495422 -16919.314142  21618.252777    618.297689
PE01  22528.584932  19181.998439   -820.089988   -949.935886
PE02 -22561.114660 -19139.327822    741.316275    164.839466
PE03 -11971.607415 -17520.958560  20638.978576   -347.682840
PE04  17523.096590  -4022.826838 -23514.202940   -616.002822
PE05    672.981896 -29056.272823   5620.612104   -342.446993
PE07 -12822.047110  23532.820993  12557.650172   -441.665752
PE08 -17363.966144   4432.991613  23554.292435   6114.419065
PE09  12548.082042 -23726.776097 -12500.304314   5916.684922
PE11  21609.821633 -16604.508038 -11557.947454   5827.056613
PE12  28029.039068  -5482.063919   7765.825893   5583.813232
PE13 -21763.567811  16555.989712  11325.764247    403.950932
PE14  17806.049623  -7877.274541  15114.875539  -1171.210507
PE15 -28016.343206   5734.266295  -7622.164177    850.781172
PE18 -21442.972381   -532.089826 -23430.850905  -1279.588496
PE19  10702.565850  19491.604922 -19537.362206     89.405101
PE21   8475.515681  22184.285256 -17659.603784   -623.795610
PE24  11403.700231 -12007.904969  24533.002220   5221.040239
PE25  -8315.460689 -22163.225389  17786.548885   -517.304030
PE26  -2136.509415  17645.352127  23666.897322   2676.038987
PE27 -10900.257836  12367.502503 -24571.749678    124.891775
PE30 -23936.550414  -5237.209156 -16598.835753   3549.536610
PE31  23768.378229   4641.660565  17034.962266   -474.429915
PE33  17804.374988   8455.091326  22087.187122   -462.637208
PE36   2741.381966 -17647.668791 -23605.070245    501.707394
PG01  -6464.192084 -13995.520268 -21905.380766     35.163646
PG02 -15582.400809  14697.046428  16330.803540   -522.360056
PG03 -11915.992490 -22984.068088  -6247.945796   -311.271189
PG04  -2506.372130 -21090.441741  15930.192706   -139.540522
PG05  -5181.192167  16308.443086  20112.765107    -22.112486
PG06 -25575.522219   5964.938192   4150.887843   -329.254748
PG07 -22164.433626  -7169.213643  13521.631082   -381.876873
PG08   4918.612509 -24986.871975  -7032.862920    -49.533409
PG09 -11788.204445 -10848.780681  21124.134638   -292.415779
PG10  19226.072380   5257.171164 -17591.048362   -465.875386
PG11   2879.149351 -19323.752377 -18610.497294   -152.167554
PG12   8983.520850  23833.778236  -8029.025864     61.401819
PG13 -13211.565845  22971.163216   -296.851596     49.434922
PG15  -1385.797268  25211.431149  -7941.270446   -200.690504
PG16   5153.973714 -16764.091998  19580.999022   -214.988323
PG17 -17305.492498   7739.259803 -18158.883748    332.106936
PG18  22611.504284   6385.801943  12420.617220    297.968580
PG19 -18194.495655  13594.145516 -14003.837385    -99.063729
PG20  21609.941263  13734.501434  -7605.553698    526.590724
PG21  15328.405383 -14172.879731 -15507.245106     51.898159
PG22  -6935.201974 -22048.863197 -13019.027532   -749.685654
PG24   3491.253901  15470.363189 -21519.203130    -19.105446
PG25  17346.046953  20115.895329   2519.519779     55.491504
PG26  14681.793922  -6270.876815  21220.915194    286.181996
PG27  12453.688878 -22920.274273   3764.912626   -405.840784
PG28 -17807.906637  -5183.565271 -18368.725392    673.927617
PG29   8295.039302  14143.521637  20845.028465   -204.047251
PG30 -26364.632470   -577.317532   4082.155697   -309.911643
PG31  25236.904075  -6699.033864   6006.648572    -71.474666
PG32  17331.493565  -8732.229109 -17975.612215    351.516898
PJ01 -26066.621665  25524.870227  26066.453504   -343.882451
PJ02 -25834.669948  15439.678435 -25047.219855     -4.318480
PJ03 -27348.860878  31742.345029   -196.275894     -1.475399
PR01  -3085.457609  22216.718341  12131.445978     68.220719
PR02   6596.086422  22972.769161  -8961.533721    447.525611
PR03  11099.658592   8653.377018 -21251.088664     22.796620
PR04   9011.308332 -10417.527958 -21447.329716     56.064150
PR05   2038.297733 -23559.139087  -9529.850966     58.337049
PR07 -11152.801561  -7903.655907  21556.695018    -40.427308
PR08  -9156.920610  10430.080495  21453.541992    -54.826802
PR11 -17378.158515   2277.176144 -18532.703084    -39.204401
PR12  -1555.868355  11176.026771 -22843.468339    167.358874
PR13  15689.165802  14117.525768 -14330.151759    -44.457709
PR14  23731.867246   8833.889652   3017.106590     55.998965
PR15  17896.002939  -1544.933009  18137.668160    106.995484
PR16    758.170002 -11597.020508  22681.627798     -6.752780
PR17  16964.486146  -1603.819006  19007.994116    361.752079
PR18  21528.163816 -12744.234784   4877.587090     50.876584
PR19  15514.901974 -16733.760778 -11415.916019   -113.056367
PR20  -1866.506926 -11045.818793 -22907.529938   -422.838315
PR21 -17473.274759   2345.636282 -18419.925809   -155.246157
PR22 -21525.113239  13277.762381  -3665.559648    -74.983484
PR23  -9504.138451  16215.760130  17230.061127    334.837769
PR24   2928.616136  11009.941965  22834.411316     14.861396
PR26   3075.052783 -13839.724538 -21204.702619   -360.463965
EOF
